{"fetched_at":"2026-07-18T06:27:47.409Z","source":"https://celestrak.org/NORAD/elements/gp.php?GROUP=planet&FORMAT=JSON","constellation":"tanager","records":[{"OBJECT_NAME":"TANAGER-1","OBJECT_ID":"2024-149AR","EPOCH":"2026-07-16T20:01:13.067328","CLASSIFICATION_TYPE":"U","MEAN_MOTION":15.43939801,"ECCENTRICITY":0.0001584,"INCLINATION":97.2319,"RA_OF_ASC_NODE":291.9587,"ARG_OF_PERICENTER":131.3184,"MEAN_ANOMALY":228.8201,"EPHEMERIS_TYPE":0,"NORAD_CAT_ID":60507,"ELEMENT_SET_NO":999,"REV_AT_EPOCH":10761,"BSTAR":0.000005816828,"MEAN_MOTION_DOT":0.0000018,"MEAN_MOTION_DDOT":0}]}
