TANAGER-1               
1 60507U 24149AR  26197.83417902  .00000180  00000+0  58168-5 0  9998
2 60507  97.2319 291.9587 0001584 131.3184 228.8201 15.43939801107612
